#aV2008 10 16  0  0   .00000000      96 DD+AD WGS84 FIT  NGA
## 1501 345600.00000000   900.00000000 54755  .0000000000000
+   31     2  3  4  5  6  7  8  9 10 11 12 13 14 15 16 17 18
+         19 20 21 22 23 24 25 26 27 28 29 30 31 32  0  0  0
+          0  0  0  0  0  0  0  0  0  0  0  0  0  0  0  0  0
+          0  0  0  0  0  0  0  0  0  0  0  0  0  0  0  0  0
+          0  0  0  0  0  0  0  0  0  0  0  0  0  0  0  0  0
++         0  0  0  0  0  0  0  0  0  0  0  0  0  0  0  0  0
++         0  0  0  0  0  0  0  0  0  0  0  0  0  0  0  0  0
++         0  0  0  0  0  0  0  0  0  0  0  0  0  0  0  0  0
++         0  0  0  0  0  0  0  0  0  0  0  0  0  0  0  0  0
++         0  0  0  0  0  0  0  0  0  0  0  0  0  0  0  0  0
%c cc cc ccc ccc cccc cccc cccc cccc ccccc ccccc ccccc ccccc
%c cc cc ccc ccc cccc cccc cccc cccc ccccc ccccc ccccc ccccc
%f  0.0000000  0.000000000  0.00000000000  0.000000000000000
%f  0.0000000  0.000000000  0.00000000000  0.000000000000000
%i    0    0    0    0      0      0      0      0         0
%i    0    0    0    0      0      0      0      0         0
/*      NGA, ST. LOUIS,MO.                                  
/*   EPHEMERIS COMPUTED FROM  3 DAYS OF DATA                
/* CCCCCCCCCCCCCCCCCCCCCCCCCCCCCCCCCCCCCCCCCCCCCCCCCCCCCCCCC
/* CCCCCCCCCCCCCCCCCCCCCCCCCCCCCCCCCCCCCCCCCCCCCCCCCCCCCCCCC
*  2008 10 16 17 45   .00000000                                                 
P  2 -17410.557780   3048.570739 -19853.199159    179.743179                    
V  2   9452.135203 -23281.355326 -12317.551631      -.027272                    
P  3  20023.395073   4081.595326  16861.551917    297.764275                    
V  3  12438.241199  18207.600668 -18502.792721       .053224                    
P  4 -11557.559092 -11271.427948 -21151.194173   -202.543693                    
V  4  12653.691305 -23557.599512   6038.000445      -.116052                    
P  5 -13512.816435  15033.465062 -17459.077530   -286.905863                    
V  5 -21736.702728   1540.101022  18588.904433      -.611764                    
P  6  20219.542114   8591.615486  15117.726355    157.940206                    
V  6   9179.120027  16766.070374 -22073.346332      -.045215                    
P  7   5707.201321 -24553.221017   8174.476646     21.915349                    
V  7   6919.023268  -8236.950661 -29577.446095       .010029                    
P  8  -3716.105153 -18417.755843  18487.063172   -174.264337                    
V  8  12830.606562 -20035.842227 -17793.934276      -.015940                    
P  9 -14332.470241  21065.456710   6629.781927     20.116228                    
V  9   1480.205351  -9507.457531  30599.809596       .019128                    
P 10 -26728.342744    796.157899   -517.167769     -6.108064                    
V 10    374.916500  -2539.964622 -31539.045460      -.005494                    
P 11  11542.486887 -22703.855881   6713.796069     17.706951                    
V 11   2610.758441   9921.048763  28676.397395      -.007854                    
P 12 -19127.982305  11277.382203 -14432.071068   -346.083937                    
V 12 -18577.791428   -900.374387  23891.532259       .019530                    
P 13  -2665.774222 -22352.438995 -14211.533332    274.304555                    
V 13  10251.302413  14594.540217 -25075.882895       .010500                    
P 14  15930.523033  21004.071058  -3616.098028   -206.664235                    
V 14    966.408634   4945.220721  31861.681457       .048005                    
P 15 -14485.800649   5717.368918  21548.207530   -195.073743                    
V 15 -15196.615921 -22680.926164  -4181.561830      -.063733                    
P 16  25763.045005   3006.463493  -6157.569006    101.081297                    
V 16  -7718.772813   2759.936360 -30450.884432      -.022457                    
P 17 -15808.048125 -21337.137573  -2276.328081     39.495929                    
V 17    657.885920  -3923.854236  31443.405543       .003671                    
P 18   2273.309324  15552.919747  21632.016993   -122.829297                    
V 18 -27005.131294    964.259311   1798.434973       .039505                    
P 19  14102.952661  -6147.734672  21730.126733     35.673775                    
V 19  13575.625473  23830.548433  -1866.053764       .000056                    
P 20  15711.570700 -13512.718112 -16706.842039    101.723424                    
V 20  21163.753557    229.754278  19887.496011      -.010703                    
P 21  -1213.125668  22998.875375  12885.099730     46.434904                    
V 21 -10403.838138  12995.586562 -25198.712688      -.015673                    
P 22  15810.613564  12337.384353  17608.957110    210.316706                    
V 22 -22008.399741   2499.920412  18115.973431      -.001697                    
P 23   5554.023922 -16433.395564 -20085.563116    376.921485                    
V 23  15029.538774  20555.520142 -12958.647457       .012779                    
P 24 -12961.185065  23356.120474    -24.127874    133.679645                    
V 24  -2391.284950  -1568.809986 -31387.293910       .029656                    
P 25   8597.264845 -25217.490552   1225.104197    -57.931759                    
V 25   2698.236281   -179.695091 -31727.875882       .355984                    
P 26 -16425.997750  -1444.161546  20456.020870      3.424163                    
V 26 -13449.206391 -23293.396977 -11642.202847       .049612                    
P 27   1507.520806 -24116.361727  11571.168111    225.605948                    
V 27   7141.141436 -11848.832002 -27348.946593       .027630                    
P 28 -14407.416003 -12584.508061  18959.371356    -23.138767                    
V 28  23065.704332  -2031.944431  16196.595156      -.001584                    
P 29    270.866055  21161.660715 -15967.060176    -34.161262                    
V 29 -12662.122142 -16184.234887 -21484.342639       .014191                    
P 30  -4368.572757  15787.410206 -21253.681345    102.416859                    
V 30 -26137.334351   2150.741031   7177.526308       .020615                    
P 31  12671.578032   7984.741929 -21723.306528    -32.840293                    
V 31 -12446.276093  25145.090492   2067.061627      -.022952                    
P 32  22312.409317  -7628.003839 -11594.637240    316.186843                    
V 32  15410.171152   2745.464696  27050.995442      -.005263                    
EOF
